GLOBALSTAR M084         
1 38040U 11080A   24169.82713288 -.00000101  00000+0  12798-4 0  9999
2 38040  52.0016  77.7170 0000734  36.5056  35.0217 12.62263525576931
GLOBALSTAR M080         
1 38041U 11080B   24168.93115212 -.00000103  00000+0  31551-5 0  9995
2 38041  52.0069  81.9223 0000611  11.0414  67.4389 12.62273539576661
GLOBALSTAR M082         
1 38042U 11080C   24168.93015576 -.00000088  00000+0  85514-4 0  9997
2 38042  52.0094  37.3353 0001343  89.0141 284.0297 12.62270371577379
GLOBALSTAR M092         
1 38043U 11080D   24168.91166420 -.00000116  00000+0 -69355-4 0  9999
2 38043  52.0075 127.7463 0000487  31.0413  18.9888 12.62262829575829
GLOBALSTAR M090         
1 38044U 11080E   24169.90677007 -.00000093  00000+0  61080-4 0  9998
2 38044  51.9904  28.6406 0001044  90.5355 282.6641 12.62264124577650
GLOBALSTAR M086         
1 38045U 11080F   24168.92922699 -.00000094  00000+0  55086-4 0  9990
2 38045  51.9917  32.1388 0000443 163.9786 325.8217 12.62263377577433
GLOBALSTAR M097         
1 39072U 13005A   24168.76931530 -.00000105  00000+0 -41690-5 0  9997
2 39072  52.0062 306.8058 0000896 129.2099 230.8848 12.62263768524662
GLOBALSTAR M093         
1 39073U 13005B   24168.74270519 -.00000091  00000+0  71639-4 0  9997
2 39073  51.9826 300.7736 0000976 134.6313 225.4633 12.62260330524612
